{
  "type": "FeatureCollection",
  "features": [
    {
      "type": "Feature",
      "geometry": {
        "type": "Polygon",
        "coordinates": [
          [
            [
              112.9311032,
              28.1669423
            ],
            [
              112.9310223,
              28.1671293
            ],
            [
              112.9306758,
              28.1676968
            ],
            [
              112.9309099,
              28.1677189
            ],
            [
              112.9310497,
              28.1678971
            ],
            [
              112.9310111,
              28.168486
            ],
            [
              112.9312,
              28.1685444
            ],
            [
              112.9312167,
              28.1683736
            ],
            [
              112.9313372,
              28.1683828
            ],
            [
              112.9314034,
              28.1683878
            ],
            [
              112.9313901,
              28.1685241
            ],
            [
              112.931663,
              28.1685865
            ],
            [
              112.9316838,
              28.1685906
            ],
            [
              112.9316743,
              28.1686189
            ],
            [
              112.9317415,
              28.1686309
            ],
            [
              112.9317618,
              28.1685687
            ],
            [
              112.9318954,
              28.1685845
            ],
            [
              112.9318882,
              28.1686053
            ],
            [
              112.9319642,
              28.1686218
            ],
            [
              112.9319746,
              28.1685987
            ],
            [
              112.9320449,
              28.1686024
            ],
            [
              112.9321023,
              28.1686083
            ],
            [
              112.93218,
              28.1686231
            ],
            [
              112.9322344,
              28.168645
            ],
            [
              112.9322778,
              28.168659
            ],
            [
              112.9323576,
              28.1686872
            ],
            [
              112.9323641,
              28.1686686
            ],
            [
              112.9323842,
              28.1685227
            ],
            [
              112.9324914,
              28.1679496
            ],
            [
              112.9328281,
              28.1679713
            ],
            [
              112.9328658,
              28.1679484
            ],
            [
              112.9329059,
              28.1679369
            ],
            [
              112.9329568,
              28.1679364
            ],
            [
              112.9329626,
              28.1677712
            ],
            [
              112.9333871,
              28.1673587
            ],
            [
              112.9334479,
              28.1672864
            ],
            [
              112.9335073,
              28.167208
            ],
            [
              112.9336074,
              28.1670447
            ],
            [
              112.9336599,
              28.1669485
            ],
            [
              112.9336819,
              28.1668621
            ],
            [
              112.933687,
              28.1667634
            ],
            [
              112.9336565,
              28.1666844
            ],
            [
              112.933579,
              28.1665729
            ],
            [
              112.9335393,
              28.1665026
            ],
            [
              112.9335438,
              28.1658018
            ],
            [
              112.9335364,
              28.1653868
            ],
            [
              112.9335364,
              28.1650686
            ],
            [
              112.9339791,
              28.1651218
            ],
            [
              112.9339809,
              28.1652319
            ],
            [
              112.9343527,
              28.1653532
            ],
            [
              112.9344797,
              28.1652927
            ],
            [
              112.934381,
              28.1647756
            ],
            [
              112.9337373,
              28.1647272
            ],
            [
              112.9337896,
              28.1637265
            ],
            [
              112.9338522,
              28.1635681
            ],
            [
              112.9337171,
              28.1632881
            ],
            [
              112.9336775,
              28.1631905
            ],
            [
              112.9337166,
              28.1631437
            ],
            [
              112.9336411,
              28.162879
            ],
            [
              112.9336099,
              28.1627455
            ],
            [
              112.9335127,
              28.1623062
            ],
            [
              112.9334629,
              28.1622853
            ],
            [
              112.9333644,
              28.1619656
            ],
            [
              112.9333284,
              28.1617264
            ],
            [
              112.9323457,
              28.1616919
            ],
            [
              112.932346,
              28.1619569
            ],
            [
              112.9323089,
              28.161956
            ],
            [
              112.9321203,
              28.1619513
            ],
            [
              112.9316182,
              28.1619447
            ],
            [
              112.9315427,
              28.1619261
            ],
            [
              112.9314793,
              28.1618988
            ],
            [
              112.9314306,
              28.1618744
            ],
            [
              112.93139,
              28.1618465
            ],
            [
              112.9313973,
              28.1610044
            ],
            [
              112.9321702,
              28.1610034
            ],
            [
              112.9322227,
              28.1604739
            ],
            [
              112.9322466,
              28.1601022
            ],
            [
              112.9322462,
              28.1597447
            ],
            [
              112.9324142,
              28.1597209
            ],
            [
              112.9324363,
              28.1595485
            ],
            [
              112.9324364,
              28.1594229
            ],
            [
              112.9324546,
              28.1592704
            ],
            [
              112.9322506,
              28.158962
            ],
            [
              112.9321012,
              28.1590092
            ],
            [
              112.9319621,
              28.1590808
            ],
            [
              112.9317164,
              28.1591571
            ],
            [
              112.9314263,
              28.1593822
            ],
            [
              112.9310657,
              28.1596649
            ],
            [
              112.9307011,
              28.1599513
            ],
            [
              112.9304044,
              28.1601692
            ],
            [
              112.9302185,
              28.1603314
            ],
            [
              112.9301201,
              28.1604377
            ],
            [
              112.9299605,
              28.1605639
            ],
            [
              112.9298371,
              28.1606573
            ],
            [
              112.929611,
              28.1608032
            ],
            [
              112.9294019,
              28.1609645
            ],
            [
              112.929295,
              28.1610442
            ],
            [
              112.9292021,
              28.1611125
            ],
            [
              112.9290456,
              28.1612409
            ],
            [
              112.9286635,
              28.1615378
            ],
            [
              112.9285034,
              28.1617159
            ],
            [
              112.9283587,
              28.1618927
            ],
            [
              112.9282309,
              28.1620725
            ],
            [
              112.9281094,
              28.1622495
            ],
            [
              112.9279836,
              28.1624525
            ],
            [
              112.9278748,
              28.162665
            ],
            [
              112.9278004,
              28.1628521
            ],
            [
              112.9277368,
              28.1630393
            ],
            [
              112.9276877,
              28.1632549
            ],
            [
              112.9276648,
              28.1634474
            ],
            [
              112.9276464,
              28.1636965
            ],
            [
              112.9276111,
              28.1639062
            ],
            [
              112.9275599,
              28.164101
            ],
            [
              112.9275262,
              28.1642832
            ],
            [
              112.9275197,
              28.1643185
            ],
            [
              112.9274571,
              28.1646974
            ],
            [
              112.9273974,
              28.1651031
            ],
            [
              112.9273315,
              28.1655679
            ],
            [
              112.9276203,
              28.1655741
            ],
            [
              112.9277949,
              28.1655463
            ],
            [
              112.9283855,
              28.1655997
            ],
            [
              112.9289106,
              28.16564
            ],
            [
              112.9289617,
              28.1656377
            ],
            [
              112.928997,
              28.1656154
            ],
            [
              112.9290044,
              28.1655915
            ],
            [
              112.9290096,
              28.1654666
            ],
            [
              112.9290759,
              28.1654647
            ],
            [
              112.9291399,
              28.165427
            ],
            [
              112.9292803,
              28.1652391
            ],
            [
              112.9295128,
              28.1651573
            ],
            [
              112.9296252,
              28.1650984
            ],
            [
              112.9297207,
              28.1651471
            ],
            [
              112.9299554,
              28.1651952
            ],
            [
              112.9300886,
              28.1652929
            ],
            [
              112.9302901,
              28.1655496
            ],
            [
              112.9303404,
              28.1658241
            ],
            [
              112.9304383,
              28.1659769
            ],
            [
              112.9304292,
              28.1661261
            ],
            [
              112.9305245,
              28.1663607
            ],
            [
              112.9307372,
              28.1662484
            ],
            [
              112.9307918,
              28.1663689
            ],
            [
              112.9308224,
              28.1664364
            ],
            [
              112.9308574,
              28.1664314
            ],
            [
              112.9310701,
              28.1664068
            ],
            [
              112.9310756,
              28.1665255
            ],
            [
              112.9311032,
              28.1669423
            ]
          ]
        ]
      },
      "properties": {
        "amenity": "university",
        "name": "中南大学（麓南校区）",
        "name:zh": "中南大学（麓南校区）",
        "wikidata": "Q5061828",
        "wikipedia": "zh:中南大学",
        "osm_id": "way/533289733",
        "display_name": "南校区 · 麓南校区",
        "layer": "campus"
      }
    },
    {
      "type": "Feature",
      "geometry": {
        "type": "Polygon",
        "coordinates": [
          [
            [
              112.9456252,
              28.1546228
            ],
            [
              112.9456193,
              28.1543965
            ],
            [
              112.9456138,
              28.1540972
            ],
            [
              112.9456028,
              28.1538047
            ],
            [
              112.9456042,
              28.15372
            ],
            [
              112.9455995,
              28.1530002
            ],
            [
              112.9446481,
              28.1529888
            ],
            [
              112.9434594,
              28.1529771
            ],
            [
              112.9420532,
              28.152959
            ],
            [
              112.9420087,
              28.1529588
            ],
            [
              112.9420095,
              28.1529142
            ],
            [
              112.941759,
              28.1529118
            ],
            [
              112.9417575,
              28.1527821
            ],
            [
              112.9417013,
              28.152692
            ],
            [
              112.9416393,
              28.15261
            ],
            [
              112.9415603,
              28.1525235
            ],
            [
              112.9415409,
              28.152477
            ],
            [
              112.9415302,
              28.1523551
            ],
            [
              112.9415198,
              28.1522493
            ],
            [
              112.9415185,
              28.1521609
            ],
            [
              112.9415182,
              28.1520875
            ],
            [
              112.9415249,
              28.1520269
            ],
            [
              112.9415735,
              28.1519779
            ],
            [
              112.9416794,
              28.1519248
            ],
            [
              112.9417773,
              28.1518684
            ],
            [
              112.9418377,
              28.1518028
            ],
            [
              112.941877,
              28.1517472
            ],
            [
              112.9419149,
              28.1515816
            ],
            [
              112.9419565,
              28.1514316
            ],
            [
              112.9419774,
              28.1513137
            ],
            [
              112.9419814,
              28.1512021
            ],
            [
              112.9419763,
              28.1511175
            ],
            [
              112.9419587,
              28.1510282
            ],
            [
              112.9419502,
              28.1508278
            ],
            [
              112.9420584,
              28.1504306
            ],
            [
              112.9421226,
              28.1501635
            ],
            [
              112.9420077,
              28.1501611
            ],
            [
              112.9414793,
              28.1501678
            ],
            [
              112.9414833,
              28.1495907
            ],
            [
              112.9414849,
              28.1493874
            ],
            [
              112.9414853,
              28.1493747
            ],
            [
              112.9403034,
              28.1494052
            ],
            [
              112.9391351,
              28.1494464
            ],
            [
              112.9374005,
              28.1494963
            ],
            [
              112.9372965,
              28.1494978
            ],
            [
              112.9371149,
              28.1495005
            ],
            [
              112.936118,
              28.1495372
            ],
            [
              112.935401,
              28.1495631
            ],
            [
              112.9341798,
              28.1495959
            ],
            [
              112.9337629,
              28.1496111
            ],
            [
              112.9334048,
              28.1496317
            ],
            [
              112.9334055,
              28.1496866
            ],
            [
              112.9334136,
              28.1499244
            ],
            [
              112.9334144,
              28.1499521
            ],
            [
              112.933367,
              28.1500019
            ],
            [
              112.9333254,
              28.1500845
            ],
            [
              112.9332897,
              28.1501421
            ],
            [
              112.9331547,
              28.150214
            ],
            [
              112.9330989,
              28.1502438
            ],
            [
              112.9330498,
              28.1503004
            ],
            [
              112.933029,
              28.1503601
            ],
            [
              112.9330027,
              28.1503926
            ],
            [
              112.9329333,
              28.1504471
            ],
            [
              112.9328895,
              28.1505202
            ],
            [
              112.9328907,
              28.1505717
            ],
            [
              112.9329166,
              28.1506376
            ],
            [
              112.9329262,
              28.1507076
            ],
            [
              112.932511,
              28.1507076
            ],
            [
              112.9325074,
              28.1507736
            ],
            [
              112.9323694,
              28.1507737
            ],
            [
              112.9323674,
              28.1506525
            ],
            [
              112.9323031,
              28.150616
            ],
            [
              112.9319741,
              28.150617
            ],
            [
              112.9319602,
              28.150751
            ],
            [
              112.9319524,
              28.1509149
            ],
            [
              112.9319346,
              28.1510665
            ],
            [
              112.9318574,
              28.1510616
            ],
            [
              112.9318001,
              28.1510608
            ],
            [
              112.9316836,
              28.1510625
            ],
            [
              112.9316104,
              28.151073
            ],
            [
              112.9315775,
              28.1509793
            ],
            [
              112.9315708,
              28.1508638
            ],
            [
              112.9315628,
              28.1507857
            ],
            [
              112.9315518,
              28.1507266
            ],
            [
              112.9290857,
              28.1507918
            ],
            [
              112.9290489,
              28.1507931
            ],
            [
              112.9290234,
              28.150802
            ],
            [
              112.9290031,
              28.150819
            ],
            [
              112.9289903,
              28.1508426
            ],
            [
              112.9282845,
              28.1529566
            ],
            [
              112.9279267,
              28.153989
            ],
            [
              112.9269868,
              28.1540026
            ],
            [
              112.9270084,
              28.155807
            ],
            [
              112.92699,
              28.1567027
            ],
            [
              112.9269822,
              28.1574996
            ],
            [
              112.9269701,
              28.1579908
            ],
            [
              112.9269164,
              28.158403
            ],
            [
              112.9268473,
              28.1587261
            ],
            [
              112.9267032,
              28.1591612
            ],
            [
              112.9265119,
              28.1596132
            ],
            [
              112.9262368,
              28.1603494
            ],
            [
              112.9260161,
              28.1607829
            ],
            [
              112.9257347,
              28.1612987
            ],
            [
              112.9255873,
              28.1615253
            ],
            [
              112.9254774,
              28.1616871
            ],
            [
              112.925686,
              28.1619725
            ],
            [
              112.9258283,
              28.162145
            ],
            [
              112.9259335,
              28.16226
            ],
            [
              112.9259767,
              28.1623342
            ],
            [
              112.9260023,
              28.1624155
            ],
            [
              112.9260116,
              28.1624777
            ],
            [
              112.9260035,
              28.1625697
            ],
            [
              112.9259861,
              28.1626607
            ],
            [
              112.9259539,
              28.1628155
            ],
            [
              112.9258866,
              28.1631397
            ],
            [
              112.9258601,
              28.1632677
            ],
            [
              112.9258431,
              28.1633488
            ],
            [
              112.9258135,
              28.1634861
            ],
            [
              112.9257839,
              28.163614
            ],
            [
              112.9257316,
              28.16382
            ],
            [
              112.9256963,
              28.1639993
            ],
            [
              112.925663,
              28.1641783
            ],
            [
              112.9256315,
              28.1643697
            ],
            [
              112.9256106,
              28.164592
            ],
            [
              112.9255854,
              28.1649023
            ],
            [
              112.9255513,
              28.1654685
            ],
            [
              112.9255493,
              28.1656421
            ],
            [
              112.9255578,
              28.1657671
            ],
            [
              112.9255854,
              28.1658404
            ],
            [
              112.9256222,
              28.1659284
            ],
            [
              112.9256502,
              28.1659651
            ],
            [
              112.9256918,
              28.1659867
            ],
            [
              112.925738,
              28.1659921
            ],
            [
              112.9258898,
              28.1659244
            ],
            [
              112.9260946,
              28.1658306
            ],
            [
              112.9261922,
              28.1657928
            ],
            [
              112.9262776,
              28.1657747
            ],
            [
              112.9263631,
              28.1657763
            ],
            [
              112.9264995,
              28.1657847
            ],
            [
              112.9267528,
              28.1658083
            ],
            [
              112.9268374,
              28.1658123
            ],
            [
              112.9269251,
              28.165803
            ],
            [
              112.926962,
              28.1657866
            ],
            [
              112.9269836,
              28.1657654
            ],
            [
              112.9269988,
              28.165736
            ],
            [
              112.9270252,
              28.1655928
            ],
            [
              112.927098,
              28.1650267
            ],
            [
              112.9271408,
              28.1646863
            ],
            [
              112.9271714,
              28.1644275
            ],
            [
              112.9272164,
              28.1641562
            ],
            [
              112.9272262,
              28.1639499
            ],
            [
              112.9272442,
              28.1637905
            ],
            [
              112.9272892,
              28.1635179
            ],
            [
              112.9273345,
              28.1633062
            ],
            [
              112.9273767,
              28.1631463
            ],
            [
              112.9274664,
              28.1628461
            ],
            [
              112.9275715,
              28.1625997
            ],
            [
              112.9276996,
              28.1623579
            ],
            [
              112.9278857,
              28.1620489
            ],
            [
              112.9280221,
              28.1618447
            ],
            [
              112.9281309,
              28.1617082
            ],
            [
              112.9283459,
              28.1614855
            ],
            [
              112.9285628,
              28.1612737
            ],
            [
              112.928757,
              28.1611115
            ],
            [
              112.9288377,
              28.1610408
            ],
            [
              112.9290879,
              28.1609036
            ],
            [
              112.9292017,
              28.1608246
            ],
            [
              112.9294065,
              28.1606561
            ],
            [
              112.9295598,
              28.160529
            ],
            [
              112.9297494,
              28.1603725
            ],
            [
              112.9299436,
              28.1602147
            ],
            [
              112.9301394,
              28.1600836
            ],
            [
              112.9303123,
              28.1599511
            ],
            [
              112.9304595,
              28.15982
            ],
            [
              112.9307903,
              28.1595739
            ],
            [
              112.9310452,
              28.1593799
            ],
            [
              112.9313077,
              28.1591405
            ],
            [
              112.9315398,
              28.1589465
            ],
            [
              112.9318494,
              28.1586843
            ],
            [
              112.931992,
              28.1585278
            ],
            [
              112.9320314,
              28.15839
            ],
            [
              112.9320876,
              28.1582549
            ],
            [
              112.9321073,
              28.1581185
            ],
            [
              112.9320997,
              28.1580048
            ],
            [
              112.9320603,
              28.1577372
            ],
            [
              112.9320358,
              28.1577795
            ],
            [
              112.9319987,
              28.1575712
            ],
            [
              112.9319509,
              28.1573139
            ],
            [
              112.9319452,
              28.1572779
            ],
            [
              112.9319155,
              28.1570919
            ],
            [
              112.9319339,
              28.1570715
            ],
            [
              112.9319408,
              28.1570503
            ],
            [
              112.93194,
              28.1570332
            ],
            [
              112.9318569,
              28.1570432
            ],
            [
              112.931833,
              28.1568837
            ],
            [
              112.9319113,
              28.1568739
            ],
            [
              112.931909,
              28.1568592
            ],
            [
              112.9318575,
              28.1565352
            ],
            [
              112.9318304,
              28.1563867
            ],
            [
              112.9318186,
              28.1563044
            ],
            [
              112.9317778,
              28.1560891
            ],
            [
              112.9317525,
              28.1559292
            ],
            [
              112.9317356,
              28.1558192
            ],
            [
              112.9317234,
              28.1557486
            ],
            [
              112.9317114,
              28.1556791
            ],
            [
              112.9316971,
              28.1555829
            ],
            [
              112.9316938,
              28.1554777
            ],
            [
              112.9316902,
              28.1553083
            ],
            [
              112.9316872,
              28.1552256
            ],
            [
              112.9316749,
              28.1551526
            ],
            [
              112.9316578,
              28.1551006
            ],
            [
              112.9316327,
              28.1550639
            ],
            [
              112.9315571,
              28.1550203
            ],
            [
              112.9314882,
              28.1550016
            ],
            [
              112.9313803,
              28.1549985
            ],
            [
              112.9312105,
              28.1549971
            ],
            [
              112.9309642,
              28.1550003
            ],
            [
              112.9302557,
              28.1550205
            ],
            [
              112.9298939,
              28.1550341
            ],
            [
              112.9295321,
              28.1550532
            ],
            [
              112.9294229,
              28.1547274
            ],
            [
              112.9310871,
              28.1546843
            ],
            [
              112.9314015,
              28.1546698
            ],
            [
              112.9314797,
              28.1546607
            ],
            [
              112.9315391,
              28.1546341
            ],
            [
              112.9316066,
              28.154581
            ],
            [
              112.9316527,
              28.1545119
            ],
            [
              112.9316664,
              28.1544362
            ],
            [
              112.9316532,
              28.1542245
            ],
            [
              112.9316386,
              28.1538321
            ],
            [
              112.9316516,
              28.1536901
            ],
            [
              112.9316624,
              28.1535482
            ],
            [
              112.9316652,
              28.1534022
            ],
            [
              112.9316545,
              28.1530773
            ],
            [
              112.9316681,
              28.1529237
            ],
            [
              112.9317839,
              28.1529252
            ],
            [
              112.9318796,
              28.1529265
            ],
            [
              112.9320267,
              28.1529284
            ],
            [
              112.9320441,
              28.1534804
            ],
            [
              112.9320546,
              28.1536313
            ],
            [
              112.9320899,
              28.1539413
            ],
            [
              112.932104,
              28.1543177
            ],
            [
              112.932111,
              28.1544233
            ],
            [
              112.9321144,
              28.1544871
            ],
            [
              112.9321231,
              28.1545463
            ],
            [
              112.9321495,
              28.1545881
            ],
            [
              112.9321968,
              28.1546172
            ],
            [
              112.9322543,
              28.1546411
            ],
            [
              112.9323233,
              28.1546498
            ],
            [
              112.9326742,
              28.1546365
            ],
            [
              112.9336571,
              28.1546059
            ],
            [
              112.9339693,
              28.1546055
            ],
            [
              112.9342449,
              28.1545966
            ],
            [
              112.9346274,
              28.15458
            ],
            [
              112.9349407,
              28.154571
            ],
            [
              112.9353057,
              28.1545555
            ],
            [
              112.9357805,
              28.1545378
            ],
            [
              112.9359184,
              28.1545289
            ],
            [
              112.9360554,
              28.1545202
            ],
            [
              112.9367379,
              28.1545029
            ],
            [
              112.9376548,
              28.1544754
            ],
            [
              112.9385624,
              28.1544469
            ],
            [
              112.9389717,
              28.1544561
            ],
            [
              112.9391064,
              28.1544596
            ],
            [
              112.9392014,
              28.154462
            ],
            [
              112.9395101,
              28.1544788
            ],
            [
              112.9397722,
              28.1544919
            ],
            [
              112.9400243,
              28.1545156
            ],
            [
              112.9402808,
              28.1545485
            ],
            [
              112.9407683,
              28.1546198
            ],
            [
              112.9414845,
              28.1547246
            ],
            [
              112.9419352,
              28.1547905
            ],
            [
              112.9423515,
              28.1548458
            ],
            [
              112.9424634,
              28.1548614
            ],
            [
              112.9424863,
              28.1548646
            ],
            [
              112.9425501,
              28.154873
            ],
            [
              112.9426054,
              28.1548819
            ],
            [
              112.9426617,
              28.1548903
            ],
            [
              112.9430103,
              28.1549421
            ],
            [
              112.9440951,
              28.1550957
            ],
            [
              112.9444415,
              28.1551252
            ],
            [
              112.9448957,
              28.1551893
            ],
            [
              112.9450578,
              28.1552152
            ],
            [
              112.9453714,
              28.1552595
            ],
            [
              112.9454489,
              28.1552601
            ],
            [
              112.9455163,
              28.1552482
            ],
            [
              112.9455789,
              28.1552153
            ],
            [
              112.9456222,
              28.1551653
            ],
            [
              112.9456458,
              28.1551174
            ],
            [
              112.9456508,
              28.155046
            ],
            [
              112.9456559,
              28.1549254
            ],
            [
              112.9456513,
              28.1547181
            ],
            [
              112.9456281,
              28.1546955
            ],
            [
              112.9456252,
              28.1546228
            ]
          ]
        ]
      },
      "properties": {
        "amenity": "university",
        "name": "中南大学（潇湘校区）",
        "wikidata": "Q5061828",
        "wikipedia": "zh:中南大学",
        "osm_id": "way/966198402",
        "display_name": "新校区 · 潇湘校区",
        "layer": "campus"
      }
    }
  ]
}